{
  "type": "FeatureCollection",
  "features": [
    {
      "type": "Feature",
      "properties": {
        "norad_id": 35915,
        "name": "IRIDIUM 33 DEB",
        "group": "iridium-33-debris",
        "lat": 14.356574296150836,
        "lon": -14.011755482362796,
        "alt_km": 635.5950644477753,
        "timestamp": "2025-12-08T03:50:07.381958+00:00",
        "meta_object_name": "IRIDIUM 33 DEB",
        "meta_object_id": "1997-051TY",
        "meta_epoch": "2025-12-07T06:40:59.278368",
        "meta_mean_motion": 14.80520219,
        "meta_eccentricity": 0.00100927,
        "meta_inclination": 86.3423,
        "meta_ra_of_asc_node": 345.4528,
        "meta_arg_of_pericenter": 207.8342,
        "meta_mean_anomaly": 152.2341,
        "meta_ephemeris_type": 0,
        "meta_classification_type": "U",
        "meta_norad_cat_id": 35915,
        "meta_element_set_no": 999,
        "meta_rev_at_epoch": 8005,
        "meta_bstar": 0.0027014818,
        "meta_mean_motion_dot": 0.00020765,
        "meta_mean_motion_ddot": 0,
        "tle_line1": "1 35915U 97051TY  25341.27846387  .00020765  00000+0  27015-2 0  9991",
        "tle_line2": "2 35915  86.3423 345.4528 0010092 207.8342 152.2341 14.80520219 80053"
      },
      "geometry": {
        "type": "Point",
        "coordinates": [
          -14.011755482362796,
          14.356574296150836
        ]
      }
    },
    {
      "type": "Feature",
      "properties": {
        "norad_id": 35918,
        "name": "IRIDIUM 33 DEB",
        "group": "iridium-33-debris",
        "lat": -66.099300359135,
        "lon": 69.6133637667087,
        "alt_km": 735.4380673481046,
        "timestamp": "2025-12-08T03:50:07.381968+00:00",
        "meta_object_name": "IRIDIUM 33 DEB",
        "meta_object_id": "1997-051UB",
        "meta_epoch": "2025-11-30T01:41:55.281408",
        "meta_mean_motion": 14.51050885,
        "meta_eccentricity": 0.00264066,
        "meta_inclination": 86.4001,
        "meta_ra_of_asc_node": 81.2516,
        "meta_arg_of_pericenter": 211.3482,
        "meta_mean_anomaly": 332.4953,
        "meta_ephemeris_type": 0,
        "meta_classification_type": "U",
        "meta_norad_cat_id": 35918,
        "meta_element_set_no": 999,
        "meta_rev_at_epoch": 85023,
        "meta_bstar": 0.0014523463,
        "meta_mean_motion_dot": 5.795e-05,
        "meta_mean_motion_ddot": 0,
        "tle_line1": "1 35918U 97051UB  25334.07077872  .00005795  00000+0  14523-2 0  9995",
        "tle_line2": "2 35918  86.4001  81.2516 0026406 211.3482 332.4953 14.51050885850233"
      },
      "geometry": {
        "type": "Point",
        "coordinates": [
          69.6133637667087,
          -66.099300359135
        ]
      }
    },
    {
      "type": "Feature",
      "properties": {
        "norad_id": 35929,
        "name": "IRIDIUM 33 DEB",
        "group": "iridium-33-debris",
        "lat": -75.33423597679355,
        "lon": -59.36424559405753,
        "alt_km": 575.5192512064013,
        "timestamp": "2025-12-08T03:50:07.381978+00:00",
        "meta_object_name": "IRIDIUM 33 DEB",
        "meta_object_id": "1997-051UN",
        "meta_epoch": "2025-12-02T05:49:26.493600",
        "meta_mean_motion": 15.0130448,
        "meta_eccentricity": 0.00195405,
        "meta_inclination": 86.3365,
        "meta_ra_of_asc_node": 317.6053,
        "meta_arg_of_pericenter": 65.7501,
        "meta_mean_anomaly": 294.577,
        "meta_ephemeris_type": 0,
        "meta_classification_type": "U",
        "meta_norad_cat_id": 35929,
        "meta_element_set_no": 999,
        "meta_rev_at_epoch": 87622,
        "meta_bstar": 0.0032053397,
        "meta_mean_motion_dot": 0.00041608,
        "meta_mean_motion_ddot": 0,
        "tle_line1": "1 35929U 97051UN  25336.24266775  .00041608  00000+0  32053-2 0  9991",
        "tle_line2": "2 35929  86.3365 317.6053 0019540  65.7501 294.5770 15.01304480876224"
      },
      "geometry": {
        "type": "Point",
        "coordinates": [
          -59.36424559405753,
          -75.33423597679355
        ]
      }
    },
    {
      "type": "Feature",
      "properties": {
        "norad_id": 36011,
        "name": "IRIDIUM 33 DEB",
        "group": "iridium-33-debris",
        "lat": 33.26882132944885,
        "lon": -145.01265533936098,
        "alt_km": 751.9466197664151,
        "timestamp": "2025-12-08T03:50:07.381988+00:00",
        "meta_object_name": "IRIDIUM 33 DEB",
        "meta_object_id": "1997-051US",
        "meta_epoch": "2025-11-27T22:48:02.153088",
        "meta_mean_motion": 14.41259363,
        "meta_eccentricity": 0.0016688,
        "meta_inclination": 86.3418,
        "meta_ra_of_asc_node": 41.7752,
        "meta_arg_of_pericenter": 268.8947,
        "meta_mean_anomaly": 217.0188,
        "meta_ephemeris_type": 0,
        "meta_classification_type": "U",
        "meta_norad_cat_id": 36011,
        "meta_element_set_no": 999,
        "meta_rev_at_epoch": 64327,
        "meta_bstar": 0.00058853,
        "meta_mean_motion_dot": 1.923e-05,
        "meta_mean_motion_ddot": 0,
        "tle_line1": "1 36011U 97051US  25331.95002492  .00001923  00000+0  58853-3 0  9994",
        "tle_line2": "2 36011  86.3418  41.7752 0016688 268.8947 217.0188 14.41259363643279"
      },
      "geometry": {
        "type": "Point",
        "coordinates": [
          -145.01265533936098,
          33.26882132944885
        ]
      }
    },
    {
      "type": "Feature",
      "properties": {
        "norad_id": 36012,
        "name": "IRIDIUM 33 DEB",
        "group": "iridium-33-debris",
        "lat": 80.93287909214659,
        "lon": -27.686958165649045,
        "alt_km": 969.1482764095726,
        "timestamp": "2025-12-08T03:50:07.381998+00:00",
        "meta_object_name": "IRIDIUM 33 DEB",
        "meta_object_id": "1997-051UT",
        "meta_epoch": "2025-12-06T04:02:53.038752",
        "meta_mean_motion": 14.18666574,
        "meta_eccentricity": 0.02131994,
        "meta_inclination": 86.4443,
        "meta_ra_of_asc_node": 310.1835,
        "meta_arg_of_pericenter": 284.453,
        "meta_mean_anomaly": 73.3086,
        "meta_ephemeris_type": 0,
        "meta_classification_type": "U",
        "meta_norad_cat_id": 36012,
        "meta_element_set_no": 999,
        "meta_rev_at_epoch": 65391,
        "meta_bstar": 0.011047902,
        "meta_mean_motion_dot": 0.0002881,
        "meta_mean_motion_ddot": 0,
        "tle_line1": "1 36012U 97051UT  25340.16866943  .00028810  00000+0  11048-1 0  9994",
        "tle_line2": "2 36012  86.4443 310.1835 0213199 284.4530  73.3086 14.18666574653914"
      },
      "geometry": {
        "type": "Point",
        "coordinates": [
          -27.686958165649045,
          80.93287909214659
        ]
      }
    },
    {
      "type": "Feature",
      "properties": {
        "norad_id": 36028,
        "name": "IRIDIUM 33 DEB",
        "group": "iridium-33-debris",
        "lat": -11.758407219156393,
        "lon": -51.91621060366569,
        "alt_km": 583.8403252192611,
        "timestamp": "2025-12-08T03:50:07.382008+00:00",
        "meta_object_name": "IRIDIUM 33 DEB",
        "meta_object_id": "1997-051VK",
        "meta_epoch": "2025-12-07T03:47:25.083744",
        "meta_mean_motion": 14.94882554,
        "meta_eccentricity": 0.0022029,
        "meta_inclination": 86.3219,
        "meta_ra_of_asc_node": 309.3218,
        "meta_arg_of_pericenter": 70.0676,
        "meta_mean_anomaly": 290.2923,
        "meta_ephemeris_type": 0,
        "meta_classification_type": "U",
        "meta_norad_cat_id": 36028,
        "meta_element_set_no": 999,
        "meta_rev_at_epoch": 87041,
        "meta_bstar": 0.0035058592,
        "meta_mean_motion_dot": 0.00038575,
        "meta_mean_motion_ddot": 0,
        "tle_line1": "1 36028U 97051VK  25341.15792921  .00038575  00000+0  35059-2 0  9993",
        "tle_line2": "2 36028  86.3219 309.3218 0022029  70.0676 290.2923 14.94882554870414"
      },
      "geometry": {
        "type": "Point",
        "coordinates": [
          -51.91621060366569,
          -11.758407219156393
        ]
      }
    },
    {
      "type": "Feature",
      "properties": {
        "norad_id": 36080,
        "name": "IRIDIUM 33 DEB",
        "group": "iridium-33-debris",
        "lat": -73.61156880746101,
        "lon": -2.6550800994858434,
        "alt_km": 749.3864662204005,
        "timestamp": "2025-12-08T03:50:07.382018+00:00",
        "meta_object_name": "IRIDIUM 33 DEB",
        "meta_object_id": "1997-051VM",
        "meta_epoch": "2025-12-04T08:52:09.343776",
        "meta_mean_motion": 14.46551411,
        "meta_eccentricity": 0.0017324,
        "meta_inclination": 86.3204,
        "meta_ra_of_asc_node": 11.6345,
        "meta_arg_of_pericenter": 183.7015,
        "meta_mean_anomaly": 176.4063,
        "meta_ephemeris_type": 0,
        "meta_classification_type": "U",
        "meta_norad_cat_id": 36080,
        "meta_element_set_no": 999,
        "meta_rev_at_epoch": 47293,
        "meta_bstar": 0.0013956,
        "meta_mean_motion_dot": 5.055e-05,
        "meta_mean_motion_ddot": 0,
        "tle_line1": "1 36080U 97051VM  25338.36955259  .00005055  00000+0  13956-2 0  9994",
        "tle_line2": "2 36080  86.3204  11.6345 0017324 183.7015 176.4063 14.46551411472938"
      },
      "geometry": {
        "type": "Point",
        "coordinates": [
          -2.6550800994858434,
          -73.61156880746101
        ]
      }
    }
  ]
}